[{"OBJECT_NAME":"IRIDIUM 33 DEB","OBJECT_ID":"1997-051QS","EPOCH":"2026-03-05T18:25:05.119968","MEAN_MOTION":14.40556949,"ECCENTRICITY":0.01306916,"INCLINATION":86.3913,"RA_OF_ASC_NODE":182.3886,"ARG_OF_PERICENTER":344.0446,"MEAN_ANOMALY":15.6652,"EPHEMERIS_TYPE":0,"CLASSIFICATION_TYPE":"U","NORAD_CAT_ID":35620,"ELEMENT_SET_NO":999,"REV_AT_EPOCH":61160,"BSTAR":0.0029057229,"MEAN_MOTION_DOT":0.00010264,"MEAN_MOTION_DDOT":0},{"OBJECT_NAME":"IRIDIUM 33 DEB","OBJECT_ID":"1997-051QU","EPOCH":"2026-03-06T09:51:55.918368","MEAN_MOTION":15.13873274,"ECCENTRICITY":0.00066064,"INCLINATION":86.1939,"RA_OF_ASC_NODE":222.0141,"ARG_OF_PERICENTER":313.133,"MEAN_ANOMALY":76.0049,"EPHEMERIS_TYPE":0,"CLASSIFICATION_TYPE":"U","NORAD_CAT_ID":35622,"ELEMENT_SET_NO":999,"REV_AT_EPOCH":88622,"BSTAR":0.002613156,"MEAN_MOTION_DOT":0.00047543,"MEAN_MOTION_DDOT":0},{"OBJECT_NAME":"IRIDIUM 33 DEB","OBJECT_ID":"1997-051RA","EPOCH":"2026-03-06T11:11:13.069536","MEAN_MOTION":14.69175904,"ECCENTRICITY":0.00139011,"INCLINATION":86.3599,"RA_OF_ASC_NODE":331.7032,"ARG_OF_PERICENTER":47.5155,"MEAN_ANOMALY":312.7232,"EPHEMERIS_TYPE":0,"CLASSIFICATION_TYPE":"U","NORAD_CAT_ID":35628,"ELEMENT_SET_NO":999,"REV_AT_EPOCH":87675,"BSTAR":0.0014838934,"MEAN_MOTION_DOT":8.769e-5,"MEAN_MOTION_DDOT":0},{"OBJECT_NAME":"IRIDIUM 33 DEB","OBJECT_ID":"1997-051RD","EPOCH":"2026-03-05T05:38:48.899616","MEAN_MOTION":14.47619055,"ECCENTRICITY":0.0015579,"INCLINATION":86.372,"RA_OF_ASC_NODE":345.4578,"ARG_OF_PERICENTER":199.7119,"MEAN_ANOMALY":312.3923,"EPHEMERIS_TYPE":0,"CLASSIFICATION_TYPE":"U","NORAD_CAT_ID":35631,"ELEMENT_SET_NO":999,"REV_AT_EPOCH":88390,"BSTAR":0.00049775,"MEAN_MOTION_DOT":1.855e-5,"MEAN_MOTION_DDOT":0},{"OBJECT_NAME":"IRIDIUM 33 DEB","OBJECT_ID":"1997-051RJ","EPOCH":"2026-03-03T13:37:30.156096","MEAN_MOTION":14.22211774,"ECCENTRICITY":0.0154844,"INCLINATION":86.1052,"RA_OF_ASC_NODE":345.7068,"ARG_OF_PERICENTER":22.2182,"MEAN_ANOMALY":95.9581,"EPHEMERIS_TYPE":0,"CLASSIFICATION_TYPE":"U","NORAD_CAT_ID":35680,"ELEMENT_SET_NO":999,"REV_AT_EPOCH":61849,"BSTAR":0.0042353,"MEAN_MOTION_DOT":0.00010642,"MEAN_MOTION_DDOT":0},{"OBJECT_NAME":"IRIDIUM 33 DEB","OBJECT_ID":"1997-051RX","EPOCH":"2026-03-06T08:44:54.067488","MEAN_MOTION":14.72355333,"ECCENTRICITY":0.00187734,"INCLINATION":86.3249,"RA_OF_ASC_NODE":287.6142,"ARG_OF_PERICENTER":271.7574,"MEAN_ANOMALY":88.1493,"EPHEMERIS_TYPE":0,"CLASSIFICATION_TYPE":"U","NORAD_CAT_ID":35744,"ELEMENT_SET_NO":999,"REV_AT_EPOCH":88561,"BSTAR":0.001079629,"MEAN_MOTION_DOT":6.873e-5,"MEAN_MOTION_DDOT":0},{"OBJECT_NAME":"IRIDIUM 33 DEB","OBJECT_ID":"1997-051SF","EPOCH":"2026-03-05T08:58:28.854912","MEAN_MOTION":14.85589234,"ECCENTRICITY":0.0009999,"INCLINATION":86.3327,"RA_OF_ASC_NODE":291.9267,"ARG_OF_PERICENTER":227.1646,"MEAN_ANOMALY":132.8739,"EPHEMERIS_TYPE":0,"CLASSIFICATION_TYPE":"U","NORAD_CAT_ID":35797,"ELEMENT_SET_NO":999,"REV_AT_EPOCH":88566,"BSTAR":0.0017513,"MEAN_MOTION_DOT":0.00015202,"MEAN_MOTION_DDOT":0},{"OBJECT_NAME":"IRIDIUM 33 DEB","OBJECT_ID":"1997-051SQ","EPOCH":"2026-03-04T01:29:10.119552","MEAN_MOTION":14.5840662,"ECCENTRICITY":0.00141506,"INCLINATION":86.3464,"RA_OF_ASC_NODE":344.7915,"ARG_OF_PERICENTER":141.1989,"MEAN_ANOMALY":219.0239,"EPHEMERIS_TYPE":0,"CLASSIFICATION_TYPE":"U","NORAD_CAT_ID":35806,"ELEMENT_SET_NO":999,"REV_AT_EPOCH":87509,"BSTAR":0.0015765271,"MEAN_MOTION_DOT":7.337e-5,"MEAN_MOTION_DDOT":0},{"OBJECT_NAME":"IRIDIUM 33 DEB","OBJECT_ID":"1997-051ST","EPOCH":"2026-03-02T09:52:47.724672","MEAN_MOTION":14.77775546,"ECCENTRICITY":0.00119409,"INCLINATION":86.3258,"RA_OF_ASC_NODE":299.0145,"ARG_OF_PERICENTER":341.4382,"MEAN_ANOMALY":18.64,"EPHEMERIS_TYPE":0,"CLASSIFICATION_TYPE":"U","NORAD_CAT_ID":35809,"ELEMENT_SET_NO":999,"REV_AT_EPOCH":87983,"BSTAR":0.0015133331,"MEAN_MOTION_DOT":0.00010902,"MEAN_MOTION_DDOT":0},{"OBJECT_NAME":"IRIDIUM 33 DEB","OBJECT_ID":"1997-051SW","EPOCH":"2026-03-06T07:23:26.021184","MEAN_MOTION":14.43542666,"ECCENTRICITY":0.00153911,"INCLINATION":86.3784,"RA_OF_ASC_NODE":23.1548,"ARG_OF_PERICENTER":259.2944,"MEAN_ANOMALY":100.6524,"EPHEMERIS_TYPE":0,"CLASSIFICATION_TYPE":"U","NORAD_CAT_ID":35846,"ELEMENT_SET_NO":999,"REV_AT_EPOCH":72534,"BSTAR":0.00089912342,"MEAN_MOTION_DOT":3.066e-5,"MEAN_MOTION_DDOT":0},{"OBJECT_NAME":"IRIDIUM 33 DEB","OBJECT_ID":"1997-051SY","EPOCH":"2026-03-05T00:41:02.530464","MEAN_MOTION":14.81095014,"ECCENTRICITY":0.00052917,"INCLINATION":86.3931,"RA_OF_ASC_NODE":339.058,"ARG_OF_PERICENTER":297.2212,"MEAN_ANOMALY":62.847,"EPHEMERIS_TYPE":0,"CLASSIFICATION_TYPE":"U","NORAD_CAT_ID":35848,"ELEMENT_SET_NO":999,"REV_AT_EPOCH":67907,"BSTAR":0.002045193,"MEAN_MOTION_DOT":0.00015922,"MEAN_MOTION_DDOT":0},{"OBJECT_NAME":"IRIDIUM 33 DEB","OBJECT_ID":"1997-051TA","EPOCH":"2026-03-04T22:56:17.582784","MEAN_MOTION":14.81217971,"ECCENTRICITY":0.00076163,"INCLINATION":86.3508,"RA_OF_ASC_NODE":306.7887,"ARG_OF_PERICENTER":284.6052,"MEAN_ANOMALY":75.4325,"EPHEMERIS_TYPE":0,"CLASSIFICATION_TYPE":"U","NORAD_CAT_ID":35850,"ELEMENT_SET_NO":999,"REV_AT_EPOCH":72573,"BSTAR":0.0017234796,"MEAN_MOTION_DOT":0.0001346,"MEAN_MOTION_DDOT":0},{"OBJECT_NAME":"IRIDIUM 33 DEB","OBJECT_ID":"1997-051TY","EPOCH":"2026-03-05T22:20:03.373440","MEAN_MOTION":14.83514112,"ECCENTRICITY":0.0008847,"INCLINATION":86.343,"RA_OF_ASC_NODE":304.8689,"ARG_OF_PERICENTER":276.3191,"MEAN_ANOMALY":83.7024,"EPHEMERIS_TYPE":0,"CLASSIFICATION_TYPE":"U","NORAD_CAT_ID":35915,"ELEMENT_SET_NO":999,"REV_AT_EPOCH":9318,"BSTAR":0.0015699537,"MEAN_MOTION_DOT":0.00012958,"MEAN_MOTION_DDOT":0},{"OBJECT_NAME":"IRIDIUM 33 DEB","OBJECT_ID":"1997-051UB","EPOCH":"2026-03-06T05:03:54.053856","MEAN_MOTION":14.52050989,"ECCENTRICITY":0.00233524,"INCLINATION":86.4015,"RA_OF_ASC_NODE":39.946,"ARG_OF_PERICENTER":251.9311,"MEAN_ANOMALY":168.2014,"EPHEMERIS_TYPE":0,"CLASSIFICATION_TYPE":"U","NORAD_CAT_ID":35918,"ELEMENT_SET_NO":999,"REV_AT_EPOCH":86418,"BSTAR":0.0013049206,"MEAN_MOTION_DOT":5.314e-5,"MEAN_MOTION_DDOT":0},{"OBJECT_NAME":"IRIDIUM 33 DEB","OBJECT_ID":"1997-051UN","EPOCH":"2026-03-04T07:19:03.280512","MEAN_MOTION":15.09298145,"ECCENTRICITY":0.0015419,"INCLINATION":86.3396,"RA_OF_ASC_NODE":273.7871,"ARG_OF_PERICENTER":83.8088,"MEAN_ANOMALY":276.4906,"EPHEMERIS_TYPE":0,"CLASSIFICATION_TYPE":"U","NORAD_CAT_ID":35929,"ELEMENT_SET_NO":999,"REV_AT_EPOCH":89007,"BSTAR":0.0037250994,"MEAN_MOTION_DOT":0.00059943,"MEAN_MOTION_DDOT":0},{"OBJECT_NAME":"IRIDIUM 33 DEB","OBJECT_ID":"1997-051US","EPOCH":"2026-03-06T02:16:10.278624","MEAN_MOTION":14.41658258,"ECCENTRICITY":0.0017182,"INCLINATION":86.3459,"RA_OF_ASC_NODE":359.6192,"ARG_OF_PERICENTER":313.2326,"MEAN_ANOMALY":105.7397,"EPHEMERIS_TYPE":0,"CLASSIFICATION_TYPE":"U","NORAD_CAT_ID":36011,"ELEMENT_SET_NO":999,"REV_AT_EPOCH":65741,"BSTAR":0.00062398284,"MEAN_MOTION_DOT":2.054e-5,"MEAN_MOTION_DDOT":0}]
